AQUA
1 27424U 02022A   06343.35267361  .00002918  00000-0  65626-3 0  1759
2 27424  98.1821 228.5711 0003105  92.7255 267.4299 14.57182918 24130
